{
  "norad_id": 54148,
  "name": "ONEWEB-0536",
  "history": [
    {
      "epoch": "2026-04-13T05:17:35.059488Z",
      "apogee_km": 1182.4680575947568,
      "perigee_km": 1181.0709868694485,
      "latitude_deg": -3.854140092691282e-05,
      "longitude_deg": 6.62426951476301,
      "height_km": 1184.379115238772,
      "semi_major_axis_km": 7559.906522232102,
      "eccentricity": 9.24e-05,
      "inclination_deg": 87.912,
      "raan_deg": 287.4348,
      "arg_perigee_deg": 65.2828,
      "mean_anomaly_deg": 294.8401,
      "mean_motion_rev_day": 13.20772822
    },
    {
      "epoch": "2026-04-14T17:39:22.670784Z",
      "apogee_km": 1182.4310980099553,
      "perigee_km": 1181.1081143538731,
      "latitude_deg": 1.2728720648321644e-05,
      "longitude_deg": 179.37950794323484,
      "height_km": 1184.4351385226007,
      "semi_major_axis_km": 7559.906606181914,
      "eccentricity": 8.75e-05,
      "inclination_deg": 87.9123,
      "raan_deg": 287.1318,
      "arg_perigee_deg": 69.0807,
      "mean_anomaly_deg": 291.042,
      "mean_motion_rev_day": 13.207728
    },
    {
      "epoch": "2026-04-15T13:39:21.829824Z",
      "apogee_km": 1182.4200905393009,
      "perigee_km": 1181.1182746946533,
      "latitude_deg": -9.39211302552574e-06,
      "longitude_deg": -121.60504854138428,
      "height_km": 1184.4704911921378,
      "semi_major_axis_km": 7559.906182616976,
      "eccentricity": 8.61e-05,
      "inclination_deg": 87.9122,
      "raan_deg": 286.9651,
      "arg_perigee_deg": 72.067,
      "mean_anomaly_deg": 288.0557,
      "mean_motion_rev_day": 13.20772911
    },
    {
      "epoch": "2026-04-16T18:44:48.011136Z",
      "apogee_km": 1182.3791319531383,
      "perigee_km": 1181.165010556294,
      "latitude_deg": -1.912314593696729e-05,
      "longitude_deg": 160.59855591235362,
      "height_km": 1184.5186121490974,
      "semi_major_axis_km": 7559.909071254716,
      "eccentricity": 8.03e-05,
      "inclination_deg": 87.9121,
      "raan_deg": 286.7225,
      "arg_perigee_deg": 75.1813,
      "mean_anomaly_deg": 284.9409,
      "mean_motion_rev_day": 13.20772154
    },
    {
      "epoch": "2026-04-17T22:01:08.697792Z",
      "apogee_km": 1182.3585167239244,
      "perigee_km": 1181.1809856483596,
      "latitude_deg": 1.381746638772341e-05,
      "longitude_deg": 110.1650259813965,
      "height_km": 1184.5597102069996,
      "semi_major_axis_km": 7559.906751186141,
      "eccentricity": 7.788e-05,
      "inclination_deg": 87.9122,
      "raan_deg": 286.4952,
      "arg_perigee_deg": 79.0469,
      "mean_anomaly_deg": 281.0752,
      "mean_motion_rev_day": 13.20772762
    },
    {
      "epoch": "2026-04-18T18:01:07.912992Z",
      "apogee_km": 1182.3371983187672,
      "perigee_km": 1181.2032122379742,
      "latitude_deg": -2.7906602077651797e-05,
      "longitude_deg": 169.18023269647458,
      "height_km": 1184.589458825401,
      "semi_major_axis_km": 7559.90720527837,
      "eccentricity": 7.5e-05,
      "inclination_deg": 87.9123,
      "raan_deg": 286.3285,
      "arg_perigee_deg": 81.621,
      "mean_anomaly_deg": 278.5008,
      "mean_motion_rev_day": 13.20772643
    },
    {
      "epoch": "2026-04-19T17:39:17.828064Z",
      "apogee_km": 1182.3531966261553,
      "perigee_km": 1181.1859470514637,
      "latitude_deg": 4.5713219748086346e-05,
      "longitude_deg": 173.47102201734606,
      "height_km": 1184.6340382485266,
      "semi_major_axis_km": 7559.906571838809,
      "eccentricity": 7.72e-05,
      "inclination_deg": 87.9122,
      "raan_deg": 286.1313,
      "arg_perigee_deg": 86.3296,
      "mean_anomaly_deg": 273.7926,
      "mean_motion_rev_day": 13.20772809
    },
    {
      "epoch": "2026-04-20T11:50:11.612544Z",
      "apogee_km": 1182.3432828097366,
      "perigee_km": 1181.1944795120344,
      "latitude_deg": -3.269720378043154e-05,
      "longitude_deg": -100.15117630840484,
      "height_km": 1184.6619021285114,
      "semi_major_axis_km": 7559.905881160885,
      "eccentricity": 7.598e-05,
      "inclination_deg": 87.9123,
      "raan_deg": 285.9799,
      "arg_perigee_deg": 89.118,
      "mean_anomaly_deg": 271.004,
      "mean_motion_rev_day": 13.2077299
    },
    {
      "epoch": "2026-04-21T18:44:43.037952Z",
      "apogee_km": 1182.3497643308356,
      "perigee_km": 1181.188562744116,
      "latitude_deg": -4.620869273426349e-06,
      "longitude_deg": 154.69100593785262,
      "height_km": 1184.7140100863407,
      "semi_major_axis_km": 7559.906163537476,
      "eccentricity": 7.68e-05,
      "inclination_deg": 87.9124,
      "raan_deg": 285.7224,
      "arg_perigee_deg": 94.246,
      "mean_anomaly_deg": 265.8761,
      "mean_motion_rev_day": 13.20772916
    },
    {
      "epoch": "2026-04-22T18:22:52.964256Z",
      "apogee_km": 1182.3659461954549,
      "perigee_km": 1181.169969231144,
      "latitude_deg": 0.00010066076001112477,
      "longitude_deg": 158.98184797147303,
      "height_km": 1184.7554378697137,
      "semi_major_axis_km": 7559.904957713299,
      "eccentricity": 7.91e-05,
      "inclination_deg": 87.9124,
      "raan_deg": 285.5253,
      "arg_perigee_deg": 98.2352,
      "mean_anomaly_deg": 261.8872,
      "mean_motion_rev_day": 13.20773232
    },
    {
      "epoch": "2026-04-22T22:01:03.761760Z",
      "apogee_km": 1182.3594662743153,
      "perigee_km": 1181.1786089512398,
      "latitude_deg": 3.2554345096352584e-05,
      "longitude_deg": 104.25721665830604,
      "height_km": 1184.763714205287,
      "semi_major_axis_km": 7559.906037612777,
      "eccentricity": 7.81e-05,
      "inclination_deg": 87.9124,
      "raan_deg": 285.495,
      "arg_perigee_deg": 99.045,
      "mean_anomaly_deg": 261.0772,
      "mean_motion_rev_day": 13.20772949
    },
    {
      "epoch": "2026-04-24T12:11:56.749344Z",
      "apogee_km": 1182.378542348034,
      "perigee_km": 1181.1568617481826,
      "latitude_deg": -6.222270262123082e-05,
      "longitude_deg": -110.34982459593695,
      "height_km": 1184.830730885554,
      "semi_major_axis_km": 7559.9047020481075,
      "eccentricity": 8.08e-05,
      "inclination_deg": 87.9127,
      "raan_deg": 285.1768,
      "arg_perigee_deg": 105.2974,
      "mean_anomaly_deg": 254.8248,
      "mean_motion_rev_day": 13.20773299
    },
    {
      "epoch": "2026-04-25T17:17:22.801056Z",
      "apogee_km": 1182.3895433232783,
      "perigee_km": 1181.1421593528075,
      "latitude_deg": -1.662625024550569e-05,
      "longitude_deg": 171.8544205179586,
      "height_km": 1184.8809335514077,
      "semi_major_axis_km": 7559.902851338043,
      "eccentricity": 8.25e-05,
      "inclination_deg": 87.9129,
      "raan_deg": 284.9343,
      "arg_perigee_deg": 109.9886,
      "mean_anomaly_deg": 250.1336,
      "mean_motion_rev_day": 13.20773784
    },
    {
      "epoch": "2026-04-26T22:22:48.877824Z",
      "apogee_km": 1182.408148442254,
      "perigee_km": 1181.1291636033675,
      "latitude_deg": -1.1768358641128148e-05,
      "longitude_deg": 94.05876045542006,
      "height_km": 1184.9271789318761,
      "semi_major_axis_km": 7559.905656022811,
      "eccentricity": 8.459e-05,
      "inclination_deg": 87.9128,
      "raan_deg": 284.692,
      "arg_perigee_deg": 113.6599,
      "mean_anomaly_deg": 246.4623,
      "mean_motion_rev_day": 13.20773049
    },
    {
      "epoch": "2026-04-27T20:11:53.414880Z",
      "apogee_km": 1182.4303080495174,
      "perigee_km": 1181.1073245316657,
      "latitude_deg": 8.653110494257222e-06,
      "longitude_deg": 125.71202710384975,
      "height_km": 1184.9679724054527,
      "semi_major_axis_km": 7559.905816290591,
      "eccentricity": 8.75e-05,
      "inclination_deg": 87.9129,
      "raan_deg": 284.5102,
      "arg_perigee_deg": 116.7049,
      "mean_anomaly_deg": 243.4174,
      "mean_motion_rev_day": 13.20773007
    },
    {
      "epoch": "2026-04-28T19:50:03.285024Z",
      "apogee_km": 1182.469486363355,
      "perigee_km": 1181.0663680088683,
      "latitude_deg": -2.758448908640091e-05,
      "longitude_deg": 130.00310179617577,
      "height_km": 1185.0225640911194,
      "semi_major_axis_km": 7559.904927186111,
      "eccentricity": 9.28e-05,
      "inclination_deg": 87.9129,
      "raan_deg": 284.3131,
      "arg_perigee_deg": 120.1878,
      "mean_anomaly_deg": 239.9347,
      "mean_motion_rev_day": 13.2077324
    },
    {
      "epoch": "2026-04-29T19:28:13.175040Z",
      "apogee_km": 1182.4871000455996,
      "perigee_km": 1181.0461824115828,
      "latitude_deg": 1.406663225752735e-05,
      "longitude_deg": 134.29419589981532,
      "height_km": 1185.051489875482,
      "semi_major_axis_km": 7559.903641228591,
      "eccentricity": 9.53e-05,
      "inclination_deg": 87.9131,
      "raan_deg": 284.1161,
      "arg_perigee_deg": 122.1128,
      "mean_anomaly_deg": 238.0098,
      "mean_motion_rev_day": 13.20773577
    },
    {
      "epoch": "2026-04-30T11:50:01.669632Z",
      "apogee_km": 1182.504922129474,
      "perigee_km": 1181.0354273728462,
      "latitude_deg": -7.26269482144002e-05,
      "longitude_deg": -111.9660920890494,
      "height_km": 1185.0726961307853,
      "semi_major_axis_km": 7559.90717475116,
      "eccentricity": 9.719e-05,
      "inclination_deg": 87.9132,
      "raan_deg": 283.9799,
      "arg_perigee_deg": 123.0451,
      "mean_anomaly_deg": 237.0775,
      "mean_motion_rev_day": 13.20772651
    },
    {
      "epoch": "2026-05-02T11:06:21.898080Z",
      "apogee_km": 1182.5950913178222,
      "perigee_km": 1180.957614085628,
      "latitude_deg": -5.363879554204544e-05,
      "longitude_deg": -103.3856830020811,
      "height_km": 1185.1524841027287,
      "semi_major_axis_km": 7559.913352701725,
      "eccentricity": 0.0001083,
      "inclination_deg": 87.9135,
      "raan_deg": 283.586,
      "arg_perigee_deg": 125.4074,
      "mean_anomaly_deg": 234.716,
      "mean_motion_rev_day": 13.20771032
    }
  ]
}